0 PSLV DEB
1 27069U 01049M   13281.32642541  .00016724  00000-0  64610-3 0  5233
2 27069 097.2808 307.8583 0026319 160.8200 262.2760 15.25991850646716
0 PSLV DEB
1 27069U 01049M   13282.64803226  .00023882  00000-0  91847-3 0  5244
2 27069 097.2812 309.1457 0026428 156.2498 322.6503 15.26066976646916
0 PSLV DEB
1 27069U 01049M   13283.60997981  .00040938  00000-0  15762-2 0  5267
2 27069 097.2886 310.0918 0024540 151.5006 208.8095 15.26092252647060
0 PSLV DEB
1 27069U 01049M   13284.07953866  .00024240  00000-0  93069-3 0  5257
2 27069 097.2816 310.5407 0026366 151.3306 267.1159 15.26119895647130
0 PSLV DEB
1 27069U 01049M   13285.06205520  .00020927  00000-0  80319-3 0  5267
2 27069 097.2813 311.4979 0026535 147.9782 265.0435 15.26157524647289
0 PSLV DEB
1 27069U 01049M   13286.58291792  .00021116  00000-0  80886-3 0  5272
2 27069 097.2807 312.9789 0026779 142.9739 340.7051 15.26215585647517
0 PSLV DEB
1 27069U 01049M   13287.63085198  .00028253  00000-0  10788-2 0  5283
2 27069 097.2804 314.0004 0026682 139.9310 337.8755 15.26263994647673
0 PSLV DEB
1 27069U 01049M   13289.06122611  .00030796  00000-0  11726-2 0  5293
2 27069 097.2798 315.3949 0026700 134.9012 277.3285 15.26339166647897
0 PSLV DEB
1 27069U 01049M   13290.64673932  .00030387  00000-0  11543-2 0  5301
2 27069 097.2796 316.9403 0026848 129.4680 349.4972 15.26416007648132
0 PSLV DEB
1 27069U 01049M   13291.56526391  .00023937  00000-0  90971-3 0  5316
2 27069 097.2787 317.8357 0026711 126.4130 356.7436 15.26453187648277
0 PSLV DEB
1 27069U 01049M   13292.61339958  .00024472  00000-0  92844-3 0  5321
2 27069 097.2787 318.8566 0026828 123.2141 356.1018 15.26502463648436
0 PSLV DEB
1 27069U 01049M   13293.06015230  .00023421  00000-0  88844-3 0  5334
2 27069 097.2785 319.2921 0026796 121.5823 291.2601 15.26517134648502
0 PSLV DEB
1 27069U 01049M   13294.64533167  .00030783  00000-0  11630-2 0  5341
2 27069 097.2785 320.8365 0026946 116.3017 002.4609 15.26591076648749
0 PSLV DEB
1 27069U 01049M   13295.02715984  .00027729  00000-0  10478-2 0  5359
2 27069 097.2785 321.2088 0026965 115.0879 300.7704 15.26606616648803
